[{"OBJECT_NAME":"STARLINK-5591","OBJECT_ID":"2023-028AG","EPOCH":"2026-03-09T19:46:08.982048","MEAN_MOTION":14.98331041,"ECCENTRICITY":0.00030516,"INCLINATION":69.9995,"RA_OF_ASC_NODE":224.0962,"ARG_OF_PERICENTER":271.1011,"MEAN_ANOMALY":88.9798,"EPHEMERIS_TYPE":0,"CLASSIFICATION_TYPE":"U","NORAD_CAT_ID":55771,"ELEMENT_SET_NO":999,"REV_AT_EPOCH":16655,"BSTAR":0.00012836784,"MEAN_MOTION_DOT":1.439e-5,"MEAN_MOTION_DDOT":0},{"OBJECT_NAME":"LEMUR-2-BALTO","OBJECT_ID":"2025-052BH","EPOCH":"2026-03-09T16:40:42.002112","MEAN_MOTION":14.98934076,"ECCENTRICITY":0.00022794,"INCLINATION":97.6978,"RA_OF_ASC_NODE":323.5166,"ARG_OF_PERICENTER":359.2852,"MEAN_ANOMALY":0.8367,"EPHEMERIS_TYPE":0,"CLASSIFICATION_TYPE":"U","NORAD_CAT_ID":63395,"ELEMENT_SET_NO":999,"REV_AT_EPOCH":5385,"BSTAR":0.00063455958,"MEAN_MOTION_DOT":7.621e-5,"MEAN_MOTION_DDOT":0}]
